[{"OBJECT_NAME":"STARLINK-3802","OBJECT_ID":"2022-041AB","EPOCH":"2026-03-09T12:04:26.763456","MEAN_MOTION":15.08835737,"ECCENTRICITY":0.00013721,"INCLINATION":53.2157,"RA_OF_ASC_NODE":99.9588,"ARG_OF_PERICENTER":96.3904,"MEAN_ANOMALY":263.7245,"EPHEMERIS_TYPE":0,"CLASSIFICATION_TYPE":"U","NORAD_CAT_ID":52286,"ELEMENT_SET_NO":999,"REV_AT_EPOCH":21447,"BSTAR":-3.5729227e-5,"MEAN_MOTION_DOT":-8.56e-6,"MEAN_MOTION_DDOT":0},{"OBJECT_NAME":"DELTA 1 DEB","OBJECT_ID":"1977-065CP","EPOCH":"2026-03-09T17:31:47.793792","MEAN_MOTION":13.76448417,"ECCENTRICITY":0.06350814,"INCLINATION":29.0588,"RA_OF_ASC_NODE":99.4009,"ARG_OF_PERICENTER":346.601,"MEAN_ANOMALY":11.8386,"EPHEMERIS_TYPE":0,"CLASSIFICATION_TYPE":"U","NORAD_CAT_ID":10262,"ELEMENT_SET_NO":999,"REV_AT_EPOCH":39254,"BSTAR":0.00092776054,"MEAN_MOTION_DOT":4.395e-5,"MEAN_MOTION_DDOT":0}]
